[{"OBJECT_NAME":"STARLINK-30309","OBJECT_ID":"2023-122A","EPOCH":"2026-03-09T09:53:54.246624","MEAN_MOTION":15.26712855,"ECCENTRICITY":0.00010941,"INCLINATION":42.9987,"RA_OF_ASC_NODE":94.1486,"ARG_OF_PERICENTER":299.3962,"MEAN_ANOMALY":60.678,"EPHEMERIS_TYPE":0,"CLASSIFICATION_TYPE":"U","NORAD_CAT_ID":57632,"ELEMENT_SET_NO":999,"REV_AT_EPOCH":14216,"BSTAR":-0.00015787097,"MEAN_MOTION_DOT":-4.488e-5,"MEAN_MOTION_DDOT":0},{"OBJECT_NAME":"KUIPER-00266","OBJECT_ID":"2026-030AB","EPOCH":"2026-03-08T21:54:37.698048","MEAN_MOTION":15.30874235,"ECCENTRICITY":0.0022313,"INCLINATION":51.8807,"RA_OF_ASC_NODE":223.5904,"ARG_OF_PERICENTER":72.5291,"MEAN_ANOMALY":287.8129,"EPHEMERIS_TYPE":0,"CLASSIFICATION_TYPE":"U","NORAD_CAT_ID":67789,"ELEMENT_SET_NO":999,"REV_AT_EPOCH":496,"BSTAR":0.00098219753,"MEAN_MOTION_DOT":0.00029701,"MEAN_MOTION_DDOT":0}]
